{
    "links": {
        "self": "http://www.neowsapp.com/rest/v1/neo/3843674?api_key=iIulBulltgU6a56xZRHN4H3l9WmuAYTsLGpBGhQ2"
    },
    "id": "3843674",
    "neo_reference_id": "3843674",
    "name": "(2019 QA5)",
    "designation": "2019 QA5",
    "nasa_jpl_url": "http://ssd.jpl.nasa.gov/sbdb.cgi?sstr=3843674",
    "absolute_magnitude_h": 26.0,
    "estimated_diameter": {
        "kilometers": {
            "estimated_diameter_min": 0.0167708462,
            "estimated_diameter_max": 0.0375007522
        },
        "meters": {
            "estimated_diameter_min": 16.7708462163,
            "estimated_diameter_max": 37.5007521798
        },
        "miles": {
            "estimated_diameter_min": 0.0104209175,
            "estimated_diameter_max": 0.0233018799
        },
        "feet": {
            "estimated_diameter_min": 55.0224631002,
            "estimated_diameter_max": 123.0339677816
        }
    },
    "is_potentially_hazardous_asteroid": false,
    "close_approach_data": [
        {
            "close_approach_date": "2019-09-02",
            "close_approach_date_full": "2019-Sep-02 01:44",
            "epoch_date_close_approach": 1567388640000,
            "relative_velocity": {
                "kilometers_per_second": "13.5319559362",
                "kilometers_per_hour": "48715.041370419",
                "miles_per_hour": "30269.6322337473"
            },
            "miss_distance": {
                "astronomical": "0.0145116654",
                "lunar": "5.6450378406",
                "kilometers": "2170914.233992698",
                "miles": "1348943.5536593124"
            },
            "orbiting_body": "Earth"
        }
    ],
    "orbital_data": {
        "orbit_id": "1",
        "orbit_determination_date": "2019-08-30 06:13:46",
        "first_observation_date": "2019-08-28",
        "last_observation_date": "2019-08-29",
        "data_arc_in_days": 1,
        "observations_used": 10,
        "orbit_uncertainty": "9",
        "minimum_orbit_intersection": ".00820102",
        "jupiter_tisserand_invariant": "3.741",
        "epoch_osculation": "2458724.5",
        "eccentricity": ".5685909496546667",
        "semi_major_axis": "1.888190383804322",
        "inclination": "6.469448522914139",
        "ascending_node_longitude": "153.986542789475",
        "orbital_period": "947.6917482629567",
        "perihelion_distance": ".8145824203482128",
        "perihelion_argument": "246.4211838500202",
        "aphelion_distance": "2.961798347260431",
        "perihelion_time": "2458771.467143437385",
        "mean_anomaly": "342.1585745908942",
        "mean_motion": ".3798703541102381",
        "equinox": "J2000",
        "orbit_class": {
            "orbit_class_type": "APO",
            "orbit_class_description": "Near-Earth asteroid orbits which cross the Earth’s orbit similar to that of 1862 Apollo",
            "orbit_class_range": "a (semi-major axis) > 1.0 AU; q (perihelion) < 1.017 AU"
        }
    },
    "is_sentry_object": false
}